C/2008 Q3 (Garradd),e,140.6368,219.8353,340.6607,1382,0.0000192,0.99871575,0.0000,06/21.9930/2009,2000,g 10.0,4.0
# From MPEC 2026-FC5
C/2008 R3 (LINEAR),e,43.1402,270.2448,84.4737,18.38768,0.0125001,0.89546282,79.1235,03/22.0/2026,2000,g 13.0,4.0
# From MPEC 2026-FC5
C/2008 S3 (Boattini),h,06/08.9705/2011,162.7409,54.9525,40.2585,1.001764,8.057540,2000,4.0,4.0
# From MPEC 2026-FC5
C/2008 T2 (Cardinal),e,56.7052,309.7958,215.7032,2963,0.0000061,0.99959678,0.0000,06/09.9967/2009,2000,g  6.0,4.0
# From MPEC 2026-FC5
C/2008 X3 (LINEAR),e,66.5801,337.4667,140.7264,43.18407,0.0034731,0.95642191,22.1247,03/22.0/2026,2000,g 13.0,4.0
# From MPEC 2026-FC5
P/2008 Y3 (McNaught),e,38.7870,262.8901,238.1482,8.032825,0.0432914,0.44869890,272.3968,03/22.0/2026,2000,g  8.5,4.0
# From MPEC 2026-FC5
P/2009 B1 (Boattini),e,22.2614,297.0730,129.0669,6.720979,0.0565660,0.63576195,354.3326,03/22.0/2026,2000,g 13.0,4.0
# From MPEC 2026-FC5
C/2009 B2 (LINEAR),e,156.8476,18.8301,192.3794,40.36097,0.0038438,0.94234898,23.9607,03/22.0/2026,2000,g 12.5,4.0
# From MPEC 2026-FC5
C/2009 E1 (Itagaki),e,127.9222,106.4119,49.2754,40.01685,0.0038935,0.98486145,0.0000,04/07.7329/2009,2000,g 11.5,4.0
# From MPEC 2026-FC5
C/2009 F1 (Larson),e,171.3946,357.9892,219.7480,94.28933,0.0010765,0.98036409,0.0000,06/15.3894/2009,2000,g 15.0,4.0
# From MPEC 2026-FC5
C/2009 F2 (McNaught),e,59.3339,214.1036,336.0673,318.9848,0.0001730,0.98168455,0.0000,11/12.3584/2009,2000,g  6.0,4.0
# From MPEC 2026-FC5
C/2009 F4 (McNaught),e,79.2321,53.4917,260.5204,17029,0.0000004,0.99967811,0.0000,12/24.5180/2011,2000,g  3.0,4.0
# From MPEC 2026-FC5
C/2009 F5 (McNaught),e,84.9862,219.1842,297.0924,78.50238,0.0014170,0.97177530,0.0000,11/08.0002/2008,2000,g 10.0,4.0
# From MPEC 2026-FC5
C/2009 F6 (Yi-SWAN),e,85.9088,278.1855,129.8700,470.1033,0.0000967,0.99727776,0.0000,05/06.0315/2009,2000,g  6.0,4.0
# From MPEC 2026-FC5
C/2009 G1 (STEREO),e,107.8242,120.9045,175.4555,430.4930,0.0001103,0.99738764,0.0000,04/17.5983/2009,2000,g  9.0,4.0
# From MPEC 2026-FC5
C/2009 K2 (Catalina),e,66.7111,124.0328,147.6406,932.1927,0.0000346,0.99650130,0.0000,02/01.5967/2010,2000,g 10.0,4.0
# From MPEC 2026-FC5
C/2009 K4 (Gibbs),e,34.8062,30.1354,127.2529,40.66617,0.0038006,0.96239862,23.2627,03/22.0/2026,2000,g 13.0,4.0
# From MPEC 2026-FC5
C/2009 K5 (McNaught),e,103.6954,257.6027,66.0374,1825,0.0000126,0.99921897,0.0000,04/24.1271/2010,2000,g  7.5,4.0
# From MPEC 2026-FC5
C/2009 O2 (Catalina),e,108.2090,309.7195,133.2233,241.5855,0.0002625,0.99712785,0.0000,03/20.7448/2010,2000,g 11.0,4.0
# From MPEC 2026-FC5
P/2009 O3 (Hill),e,16.2465,183.6944,154.3994,7.776541,0.0454490,0.68576079,279.4989,03/22.0/2026,2000,g 12.5,4.0
# From MPEC 2026-FC5
C/2009 O4 (Hill),h,01/06.3495/2010,95.6727,172.9453,223.7202,1.000809,2.558066,2000,10.0,4.0
# From MPEC 2026-FC5
C/2009 P2 (Boattini),h,02/15.5180/2010,163.4956,60.5564,76.4915,1.001567,6.562862,2000,6.0,4.0
# From MPEC 2026-FC5
P/2009 Q5 (McNaught),e,40.9280,160.1337,209.2372,7.427740,0.0486877,0.60914364,293.4059,03/22.0/2026,2000,g 10.0,4.0
# From MPEC 2026-FC5
C/2009 R1 (McNaught),h,07/02.0247/2010,77.3584,321.9594,130.7619,1.000297,0.399006,2000,8.0,4.0
# From MPEC 2026-FC5
C/2009 S3 (Lemmon),h,12/07.4745/2011,60.3602,225.0113,130.0855,1.000374,6.516151,2000,6.5,4.0
# From MPEC 2026-FC5
C/2009 T1 (McNaught),e,89.8378,54.2971,282.7269,1061,0.0000285,0.99410069,0.0000,09/30.0767/2009,2000,g  6.5,4.0
# From MPEC 2026-FC5
P/2009 T2 (LaSagra),e,27.5853,215.8302,216.4972,7.706205,0.0460727,0.76739033,272.0759,03/22.0/2026,2000,g 14.0,4.0
# From MPEC 2026-FC5
C/2009 T3 (LINEAR),e,148.8695,60.1555,32.6364,5231,0.0000026,0.99956062,0.0000,01/12.5521/2010,2000,g 12.5,4.0
# From MPEC 2026-FC5
C/2009 U3 (Hill),e,51.3350,49.4972,77.4135,170.4710,0.0004428,0.99182360,0.0000,03/23.8833/2010,2000,g 13.0,4.0
# From MPEC 2026-FC5
C/2009 U5 (Grauer),h,06/25.6408/2010,25.5420,120.9247,23.9206,1.001396,6.064932,2000,7.0,4.0
# From MPEC 2026-FC5
C/2009 UG89 (Lemmon),h,12/18.9293/2010,129.9689,320.9571,60.4440,1.006149,3.909562,2000,9.0,4.0
# From MPEC 2026-FC5
C/2009 W2 (Boattini),e,164.4871,199.5903,121.6978,2145,0.0000099,0.99675753,0.0000,04/25.9610/2010,2000,g  7.0,4.0
# From MPEC 2026-FC5
P/2009 WX51 (Catalina),e,9.6026,31.4991,118.3134,3.083198,0.1820547,0.73976838,355.6188,03/22.0/2026,2000,g 19.0,2.0
# From MPEC 2026-FC5
C/2009 Y1 (Catalina),e,107.2876,160.4473,127.5412,352.5514,0.0001489,0.99278824,0.0000,01/25.2244/2011,2000,g  9.0,4.0
# From MPEC 2026-FC5
P/2009 Y2 (Kowalski),e,29.9844,262.0543,172.3025,6.540983,0.0589169,0.63766499,344.3251,03/22.0/2026,2000,g 13.0,4.0
# From MPEC 2026-FC5
C/2010 A4 (SidingSpring),e,96.7753,346.8029,271.8363,273.4798,0.0002179,0.98989885,0.0000,10/01.2500/2010,2000,g 12.5,4.0
# From MPEC 2026-E44
P/2010 H2 (Vales),e,14.2786,64.1891,128.1197,3.835545,0.1312089,0.19806521,49.4466,03/22.0/2026,2000,g  6.0,4.0
# From MPEC 2026-E44
C/2010 U3 (Boattini),h,03/01.0674/2019,55.5221,42.9952,88.1197,1.000359,8.441714,2000,1.0,4.0
# From MPEC 2026-E44
P/2011 V1 (Boattini),e,7.3821,46.4923,269.5866,3.858233,0.1300533,0.54838246,355.7612,03/22.0/2026,2000,g 15.5,4.0
# From MPEC 2026-FC5
C/2012 KA51 (Palomar),e,70.6761,344.7795,94.0519,534.0376,0.0000799,0.99087383,0.0000,11/05.4098/2011,2000,g  8.7,4.0
# From MPEC 2026-FC3
C/2014 UN271 (Bernardinelli-Bernstein),h,01/16.2346/2031,95.4463,189.9902,326.0785,1.004306,10.960397,2000,2.5,3.2
# From MPEC 2026-FC3
C/2017 K2 (PANSTARRS),e,87.6399,88.2218,236.1497,1184,0.0000242,0.99847902,0.0000,12/17.9748/2022,2000,g  1.5,4.0
# From MPEC 2026-E43
C/2019 E3 (ATLAS),e,84.3277,347.1797,280.7261,6896,0.0000017,0.99850445,0.0000,11/15.8392/2023,2000,g  2.5,4.0
# From MPEC 2026-E44
P/2019 LD2 (ATLAS),e,11.7018,177.7824,116.0545,5.148836,0.0843608,0.13542504,189.8767,03/22.0/2026,2000,g  8.5,4.0
# From MPEC 2026-FC5
C/2019 T3 (ATLAS),e,121.8900,139.5520,112.4917,6321,0.0000020,0.99905842,0.0000,03/05.1082/2021,2000,g  6.8,4.0
# From MPEC 2026-E44
C/2019 U5 (PANSTARRS),e,113.5160,2.5914,181.4462,44210,0.0000001,0.99991800,0.0000,03/29.2641/2023,2000,g  4.5,4.0
# From MPC188409
C/2020 V2 (ZTF),h,05/08.6323/2023,131.6072,212.4317,162.4953,1.001236,2.229758,2000,4.9,4.0
# From MPEC 2026-FC3
C/2021 G2 (ATLAS),h,09/09.1601/2024,48.4587,221.0880,343.2676,1.001076,4.982025,2000,5.5,4.0
# From MPC191586
C/2021 S3 (PANSTARRS),e,58.5619,215.5820,6.8293,13575,0.0000006,0.99990283,0.0000,02/14.6613/2024,2000,g  5.5,4.0
# From MPEC 2026-E44
P/2022 BV9 (Lemmon),e,11.9214,337.3024,16.2580,4.367151,0.1079958,0.23321354,213.6595,03/22.0/2026,2000,g  9.5,4.0
# From MPEC 2026-FC3
C/2022 E2 (ATLAS),h,09/14.2759/2024,137.1411,125.3958,41.7776,1.000605,3.667545,2000,5.0,4.0
# From MPEC 2026-E44
C/2022 L2 (ATLAS),h,03/11.9712/2024,129.3092,39.2540,199.9264,1.000360,2.694214,2000,6.5,4.0
# From MPEC 2026-FC3
C/2022 N2 (PANSTARRS),h,08/01.0081/2025,5.5031,319.7325,75.4398,1.003777,3.825901,2000,6.0,4.0
# From MPEC 2026-FC5
P/2022 P2 (ZTF),e,12.4417,291.1671,137.8119,4.493269,0.1034810,0.55770788,139.7078,03/22.0/2026,2000,g 12.5,4.0
# From MPEC 2026-FC3
C/2022 QE78 (ATLAS),e,36.6578,119.8915,0.6570,2132,0.0000100,0.99743124,0.0000,09/12.2222/2025,2000,g  5.0,4.0
# From MPEC 2026-FC3
C/2022 R6 (PANSTARRS),h,08/26.9651/2025,57.0295,150.7781,319.9834,1.005069,6.565996,2000,5.0,4.0
# From MPEC 2026-E44
C/2022 S4 (Lemmon),e,101.2011,220.1793,268.5581,1439,0.0000181,0.99808032,0.0000,07/18.7946/2024,2000,g  8.0,4.0
# From MPEC 2026-E44
C/2022 U3 (Bok),e,33.6612,272.7865,189.1539,12279,0.0000007,0.99960680,0.0000,07/28.6865/2024,2000,g  7.5,4.0
# From MPEC 2026-E43
C/2023 A3 (Tsuchinshan-ATLAS),h,09/27.7747/2024,139.1065,21.6254,308.5524,1.000164,0.391561,2000,6.5,3.2
# From MPEC 2026-E44
P/2023 B1 (PANSTARRS),e,14.5870,78.5640,81.9107,7.070906,0.0524193,0.13139236,55.0432,03/22.0/2026,2000,g  5.5,4.0
# From MPEC 2026-FC3
C/2023 C2 (ATLAS),e,48.3224,301.0064,357.4244,1757,0.0000134,0.99865201,0.0000,11/16.6978/2024,2000,g  7.0,4.0
# From MPEC 2026-FC3
C/2023 F3 (ATLAS),h,02/02.6942/2025,145.9629,109.4680,265.5491,1.002865,5.191333,2000,6.0,4.0
# From MPEC 2026-FC3
C/2023 H5 (Lemmon),h,06/30.4064/2025,97.8547,159.4735,60.1190,1.000531,4.312820,2000,7.0,4.0
# From MPEC 2026-E44
P/2023 M4 (ATLAS),e,7.5919,296.2720,320.3941,5.442809,0.0776193,0.27910137,111.7031,03/22.0/2026,2000,g  7.5,4.0
# From MPEC 2026-FC3
C/2023 R1 (PANSTARRS),h,04/13.3913/2026,149.3153,62.5688,144.2620,1.002405,3.570068,2000,6.0,4.0
# From MPEC 2026-E44
P/2023 S1 (PANSTARRS),e,9.1575,317.2867,180.3529,3.844781,0.1307364,0.31851940,51.0750,03/22.0/2026,2000,g 11.5,4.0
# From MPEC 2026-E44
C/2023 T3 (Fuls),e,27.2184,246.0021,302.8551,967.7367,0.0000327,0.99633335,0.0000,01/25.4299/2025,2000,g  8.5,4.0
# From MPEC 2026-FC3
C/2023 V1 (Lemmon),h,07/13.0694/2025,102.0089,15.0521,103.3207,1.000389,5.092632,2000,8.5,4.0
# From MPEC 2026-FC5
P/2023 V2 (PANSTARRS),e,9.8883,95.4728,330.5147,7.215730,0.0508491,0.56971053,39.5372,03/22.0/2026,2000,g 13.5,4.0
# From MPEC 2026-FC3
C/2023 X2 (Lemmon),h,12/28.4701/2025,76.9806,66.3014,64.8010,1.000072,5.088579,2000,8.5,3.2
# From MPEC 2026-E44
C/2023 X7 (PANSTARRS),e,69.1274,119.2055,354.3899,5755,0.0000023,0.99916236,0.0000,05/15.0051/2025,2000,g  9.0,4.0
# From MPEC 2026-FC3
C/2024 A1 (ATLAS),e,94.5055,112.1403,353.1990,86449,0.0000000,0.99995519,0.0000,06/12.9970/2025,2000,g  7.0,4.0
# From MPEC 2026-FC3
C/2024 E1 (Wierzchos),h,01/20.7701/2026,75.2398,108.0799,243.6235,1.000204,0.566137,2000,7.0,4.0
# From MPEC 2026-FC3
C/2024 G2 (ATLAS),e,122.1197,171.3990,328.7533,698.5496,0.0000534,0.99234342,0.0000,06/13.6457/2025,2000,g  7.0,4.0
# From MPEC 2026-E44
C/2024 G4 (PANSTARRS),e,33.0286,152.9724,131.4102,3489,0.0000048,0.99859521,0.0000,03/21.4733/2026,2000,g  8.0,4.0
# From MPEC 2026-FC3
C/2024 G6 (ATLAS),h,02/20.5665/2026,120.4499,250.9500,23.4216,1.001635,6.430017,2000,5.5,4.0
# From MPEC 2026-E44
C/2024 G7 (ATLAS),h,02/09.9430/2025,131.5077,191.9734,289.6501,1.001590,6.027370,2000,7.0,4.0
# From MPEC 2026-FC3
